C
CYGNUS NG-15            
1 47689U 21013A   21077.46361581  .00000363  00000-0  14787-4 0  9995
2 47689  51.6447  71.4436 0003380 123.3878  17.7677 15.48913220274535
YAOGAN-31 G             
1 47691U 21014A   21078.54788294 -.00000090  00000-0  00000+0 0  9999
2 47691  63.4072  77.2433 0007133 271.0459  88.9751 13.46544152  3151
2021-014B               
1 47692U 21014B   21078.51613559 -.00000090  00000-0  00000+0 0  9998
2 47692  63.4094  77.5841 0006354 269.5730  90.4568 13.43777462  3142
YAOGAN-31 H             
1 47693U 21014C   21078.51988538 -.00000088  00000-0  00000+0 0  9998
2 47693  63.4077  78.0391 0015350 261.5359  98.3928 13.38777648  3131
2021-014D               
1 47694U 21014D   21078.50855679 -.00000090  00000-0  00000+0 0  9990
2 47694  63.4085  77.5570 0004937 289.0145  71.0345 13.44213182  3148
YAOGAN-31 J             
1 47695U 21014E   21078.54610352 -.00000090  00000-0  00000+0 0  9992
2 47695  63.4065  77.2353 0008863 275.7188  84.2827 13.46472000  3154
CZ-4C R/B               
1 47696U 21014F   21077.51170744 -.00000079  00000-0  18378-4 0  9994
2 47696  63.4627  77.7938 0116730  30.6874 330.0923 13.68338631  3060
2021-014G               
1 47697U 21014G   21078.41085391 -.00000089  00000-0  00000+0 0  9997
2 47697  63.4005  78.0922 0017767 233.3526 126.5850 13.41263008  3113
FLOCK 4S-41             
1 47698U 21006ER  21078.14149327  .00001546  00000-0  94043-4 0  9992
2 47698  97.5084 140.9197 0012437  59.5414 300.7043 15.11843223  8392
AMAZONIA 1              
1 47699U 21015A   21078.32910806 -.00000044  00000-0  00000+0 0  9999
2 47699  98.5041 153.6736 0000738 104.6113 255.5176 14.40807443  2760
2021-015B               
1 47700U 21015B   21078.10084643 -.00000066  00000-0  00000+0 0  9993
2 47700  97.3797 152.7303 0044710 179.4374 180.6915 15.12553069  2856
NANOCONNECT-2           
1 47701U 21015C   21078.11222663 -.00000071  00000-0  00000+0 0  9997
2 47701  97.4659 153.3074 0011150 247.5968 112.4379 15.22295842  2877
2021-015D               
1 47702U 21015D   21078.05152606 -.00000071  00000-0  00000+0 0  9990
2 47702  97.4693 153.2446 0011733 235.9818 124.0483 15.21883930  2853
SPACEBEE-87             
1 47703U 21015E   21077.73114465  .00003840  00000-0  17487-3 0  9993
2 47703  97.4587 152.8800 0009865 224.1392 135.9058 15.21252174  2809
SPACEBEE-86             
1 47704U 21015F   21077.86271598  .00003424  00000-0  15628-3 0  9992
2 47704  97.4586 153.0100 0009865 223.4909 136.5549 15.21253548  2809
SPACEBEE-85             
1 47705U 21015G   21077.86280586  .00003429  00000-0  15652-3 0  9992
2 47705  97.4585 153.0097 0009854 223.3130 136.7332 15.21246213  2822
SPACEBEE-84             
1 47706U 21015H   21077.73130923  .00003914  00000-0  17822-3 0  9998
2 47706  97.4585 152.8792 0009847 223.5907 136.4551 15.21242413  2804
SPACEBEE-83             
1 47707U 21015J   21077.86293597  .00003367  00000-0  15380-3 0  9999
2 47707  97.4586 153.0095 0009843 223.0922 136.9544 15.21235070  2823
SPACEBEE-82             
1 47708U 21015K   21077.86295471  .00003582  00000-0  16340-3 0  9999
2 47708  97.4585 153.0094 0009859 222.8003 137.2466 15.21237973  2827
SPACEBEE-81             
1 47709U 21015L   21077.86295854  .00003547  00000-0  16184-3 0  9992
2 47709  97.4584 153.0091 0009823 222.8092 137.2379 15.21239219  2742
SPACEBEE-80             
1 47710U 21015M   21077.86300667  .00003626  00000-0  16539-3 0  9995
2 47710  97.4583 153.0091 0009849 222.6429 137.4043 15.21235768  2827
SPACEBEE-76             
1 47711U 21015N   21077.86296563  .00003929  00000-0  17886-3 0  9997
2 47711  97.4584 153.0091 0009842 222.6786 137.3685 15.21245020  2821
2021-015P               
1 47712U 21015P   21078.45505366  .00004252  00000-0  19336-3 0  9990
2 47712  97.4585 153.5956 0009885 220.5659 139.4841 15.21238829  2917
2021-015Q               
1 47713U 21015Q   21075.82391603  .00005045  00000-0  22897-3 0  9993
2 47713  97.4590 150.9890 0009570 230.9058 129.1327 15.21216182  2419
SPACEBEE-77             
1 47714U 21015R   21078.12613453  .00003932  00000-0  17904-3 0  9996
2 47714  97.4584 153.2698 0009874 221.7269 138.3214 15.21241702  2787
SPACEBEE-78             
1 47715U 21015S   21078.12618678  .00003714  00000-0  16932-3 0  9999
2 47715  97.4584 153.2697 0009855 221.7096 138.3389 15.21234035  2867
2021-015T               
1 47716U 21015T   21078.26015106 -.00000070  00000-0  00000+0 0  9990
2 47716  97.4590 153.4043 0010975 215.9575 144.0945 15.20985723  2772
2021-015U               
1 47717U 21015U   21077.66848806 -.00000070  00000-0  00000+0 0  9995
2 47717  97.4595 152.8157 0011400 217.7618 142.3180 15.20945762  2792
2021-015V               
1 47718U 21015V   21077.66890460 -.00000070  00000-0  00000-0 0  9990
2 47718  97.4590 152.8121 0011867 211.6162 148.4738 15.20915288  2799
ARKTIKA-M 1             
1 47719U 21016A   21074.75700090 -.00000194  00000-0  00000+0 0  9994
2 47719  63.3148 292.8400 7210599 270.1095 275.5941  2.00207448   300
FREGAT R/B              
1 47720U 21016B   21077.43572173 -.00001139  00000-0  13403-2 0  9997
2 47720  63.3214 292.3593 7269252 269.5660  14.8565  1.98970374   301
SDSAT                   
1 47721U 21015W   21078.26737138 -.00000070  00000-0  00000+0 0  9992
2 47721  97.4701 153.4182 0011436 201.9840 158.0977 15.20407448  2873
STARLINK-2068           
1 47722U 21017A   21078.16667824 -.00000836  00000-0 -15362-5 0  9992
2 47722  53.0457 110.2061 0001250  60.1613 233.7235 15.73213069  2974
STARLINK-2107           
1 47723U 21017B   21078.16667824 -.00000857  00000-0 -16839-5 0  9996
2 47723  53.0457 110.2106 0001276  57.6028 234.3744 15.73213081  2970
STARLINK-2116           
1 47724U 21017C   21078.16667824 -.00000930  00000-0 -22061-5 0  9993
2 47724  53.0459 110.2089 0001258  59.7651 232.8480 15.73213142  2976
STARLINK-2125           
1 47725U 21017D   21078.16667824 -.00000689  00000-0 -48501-6 0  9993
2 47725  53.0457 110.2268 0001229  61.6663 222.0449 15.73212982  2974
STARLINK-2126           
1 47726U 21017E   21078.16667824 -.00000895  00000-0 -19526-5 0  9997
2 47726  53.0455 110.2211 0001230  62.4109 223.8437 15.73213099  2973
STARLINK-2129           
1 47727U 21017F   21078.50002315 -.00293653  00000-0 -21534-2 0  9999
2 47727  53.0442 108.5507 0001166  64.0575 318.4259 15.73285804  3024
STARLINK-2131           
1 47728U 21017G   21078.50002315 -.00247245  00000-0 -18025-2 0  9997
2 47728  53.0445 108.5567 0001034  57.3238 322.5890 15.73286286  3021
STARLINK-2132           
1 47729U 21017H   21078.50002315 -.00000839  00000-0 -15559-5 0  9996
2 47729  53.0439 108.5557 0001308  55.8373 324.6466 15.73212840  3028
STARLINK-2140           
1 47730U 21017J   21078.50002315  .00065453  00000-0  46681-3 0  9997
2 47730  53.0461 108.6068 0000871  27.2103 329.1264 15.73213052  3023
STARLINK-2141           
1 47731U 21017K   21078.41667824  .00036986  00000-0  26669-3 0  9993
2 47731  53.0461 109.0172 0000880  31.9808 213.7707 15.73204209  3012
STARLINK-2142           
1 47732U 21017L   21078.16667824 -.00000805  00000-0 -13126-5 0  9995
2 47732  53.0456 110.2048 0001380  50.2355 244.2853 15.73213038  2975
STARLINK-2143           
1 47733U 21017M   21078.50002315  .00072590  00000-0  51736-3 0  9997
2 47733  53.0461 108.6098 0001123  44.0512 310.8081 15.73187021  3021
STARLINK-2144           
1 47734U 21017N   21077.91667824 -.00001171  00000-0 -39184-5 0  9998
2 47734  53.0455 111.5027 0001322  53.2538 237.8379 15.73213243  1775
STARLINK-2146           
1 47735U 21017P   21078.16667824 -.00000760  00000-0 -99022-6 0  9998
2 47735  53.0456 110.2021 0001260  59.9397 235.8527 15.73213023  2976
STARLINK-2147           
1 47736U 21017Q   21078.16667824 -.00001240  00000-0 -44092-5 0  9999
2 47736  53.0456 110.2138 0001376  53.3582 236.7115 15.73213257  2970
STARLINK-2148           
1 47737U 21017R   21078.16667824 -.00000786  00000-0 -11760-5 0  9990
2 47737  53.0458 110.2032 0001285  58.3849 236.7716 15.73213045  2978
STARLINK-2149           
1 47738U 21017S   21078.50002315  .00099421  00000-0  70250-3 0  9996
2 47738  53.0461 108.5635 0000800 336.3946  40.2504 15.73260627  3029
STARLINK-2150           
1 47739U 21017T   21077.91667824 -.00001011  00000-0 -27770-5 0  9994
2 47739  53.0453 111.5123 0001265  59.4434 226.5616 15.73213131  1779
STARLINK-2152           
1 47740U 21017U   21078.50002315 -.00151027  00000-0 -10860-2 0  9992
2 47740  53.0451 108.5820 0001724  57.5389 310.3024 15.73302383  3020
STARLINK-2154           
1 47741U 21017V   21078.50002315  .00070789  00000-0  50487-3 0  9996
2 47741  53.0456 108.5882 0001001  45.9100 319.1383 15.73181063  3029
STARLINK-2156           
1 47742U 21017W   21078.16667824 -.00000794  00000-0 -12373-5 0  9996
2 47742  53.0457 110.2156 0001271  58.0855 231.3484 15.73213038  2974
STARLINK-2157           
1 47743U 21017X   21078.50002315 -.00658522  00000-0 -50006-2 0  9993
2 47743  53.0445 108.5680 0005733 278.2115  95.9526 15.73450468  3024
STARLINK-2158           
1 47744U 21017Y   21078.16667824 -.00000901  00000-0 -19968-5 0  9995
2 47744  53.0459 110.2170 0001299  56.6576 232.1404 15.73213126  2977
STARLINK-2159           
1 47745U 21017Z   21077.91667824 -.00001238  00000-0 -43936-5 0  9994
2 47745  53.0454 111.4763 0001417  48.6763 254.4966 15.73213251  1771
STARLINK-2160           
1 47746U 21017AA  21078.50002315  .00067914  00000-0  48511-3 0  9992
2 47746  53.0460 108.6042 0001495  62.8818 294.5542 15.73161572  3025
STARLINK-2161           
1 47747U 21017AB  21078.16667824 -.00000826  00000-0 -14657-5 0  9994
2 47747  53.0457 110.2234 0001298  57.4471 228.1716 15.73213078  2978
STARLINK-2162           
1 47748U 21017AC  21078.41667824 -.00691557  00000-0 -52761-2 0  9995
2 47748  53.0447 108.9788 0001302  68.2858 195.4694 15.73480157  3012
STARLINK-2163           
1 47749U 21017AD  21078.41667824 -.00052546  00000-0 -37094-3 0  9998
2 47749  53.0455 108.9843 0001221 303.9991 317.2425 15.73281722  3014
